CCSDS_OMM_VERS = 2.0
CREATION_DATE  = 
ORIGINATOR     = 

OBJECT_NAME    = MR-2
OBJECT_ID      = 2026-015A
CENTER_NAME    = EARTH
REF_FRAME      = TEME
TIME_SYSTEM    = UTC
MEAN_ELEMENT_THEORY = SGP/SGP4

EPOCH          = 2026-02-20T18:33:36.149184
MEAN_MOTION    = 13.52686849
ECCENTRICITY   = .0004965
INCLINATION    = 88.9959
RA_OF_ASC_NODE = 280.3830
ARG_OF_PERICENTER = 68.7138
MEAN_ANOMALY   = 291.4543

EPHEMERIS_TYPE = 0
CLASSIFICATION_TYPE = U
NORAD_CAT_ID   = 67556
ELEMENT_SET_NO = 999
REV_AT_EPOCH   = 397
BSTAR          = .63294E-4
MEAN_MOTION_DOT = .54E-6
MEAN_MOTION_DDOT = 0

CCSDS_OMM_VERS = 2.0
CREATION_DATE  = 
ORIGINATOR     = 

OBJECT_NAME    = MR-1
OBJECT_ID      = 2026-015B
CENTER_NAME    = EARTH
REF_FRAME      = TEME
TIME_SYSTEM    = UTC
MEAN_ELEMENT_THEORY = SGP/SGP4

EPOCH          = 2026-02-20T16:47:51.176832
MEAN_MOTION    = 13.52662047
ECCENTRICITY   = .0005023
INCLINATION    = 88.9958
RA_OF_ASC_NODE = 280.3907
ARG_OF_PERICENTER = 67.7043
MEAN_ANOMALY   = 292.4641

EPHEMERIS_TYPE = 0
CLASSIFICATION_TYPE = U
NORAD_CAT_ID   = 67557
ELEMENT_SET_NO = 999
REV_AT_EPOCH   = 396
BSTAR          = .75077E-4
MEAN_MOTION_DOT = .62E-6
MEAN_MOTION_DDOT = 0

CCSDS_OMM_VERS = 2.0
CREATION_DATE  = 
ORIGINATOR     = 

OBJECT_NAME    = ELECTRON R/B
OBJECT_ID      = 2026-015C
CENTER_NAME    = EARTH
REF_FRAME      = TEME
TIME_SYSTEM    = UTC
MEAN_ELEMENT_THEORY = SGP/SGP4

EPOCH          = 2026-02-20T20:05:25.693152
MEAN_MOTION    = 16.08092283
ECCENTRICITY   = .0159294
INCLINATION    = 88.9462
RA_OF_ASC_NODE = 279.3881
ARG_OF_PERICENTER = 158.0515
MEAN_ANOMALY   = 202.7706

EPHEMERIS_TYPE = 0
CLASSIFICATION_TYPE = U
NORAD_CAT_ID   = 67558
ELEMENT_SET_NO = 999
REV_AT_EPOCH   = 447
BSTAR          = .84498E-3
MEAN_MOTION_DOT = .8367179E-1
MEAN_MOTION_DDOT = -.17331E-5

CCSDS_OMM_VERS = 2.0
CREATION_DATE  = 
ORIGINATOR     = 

OBJECT_NAME    = ELECTRON KICK STAGE R/B
OBJECT_ID      = 2026-015D
CENTER_NAME    = EARTH
REF_FRAME      = TEME
TIME_SYSTEM    = UTC
MEAN_ELEMENT_THEORY = SGP/SGP4

EPOCH          = 2026-02-20T17:52:27.931872
MEAN_MOTION    = 14.68775105
ECCENTRICITY   = .0526575
INCLINATION    = 89.0488
RA_OF_ASC_NODE = 279.9160
ARG_OF_PERICENTER = 232.3986
MEAN_ANOMALY   = 122.8323

EPHEMERIS_TYPE = 0
CLASSIFICATION_TYPE = U
NORAD_CAT_ID   = 67559
ELEMENT_SET_NO = 999
REV_AT_EPOCH   = 430
BSTAR          = .77415E-3
MEAN_MOTION_DOT = .46377E-3
MEAN_MOTION_DDOT = -.16832E-6

CCSDS_OMM_VERS = 2.0
CREATION_DATE  = 
ORIGINATOR     = 

OBJECT_NAME    = STARLINK-36426
OBJECT_ID      = 2026-014AA
CENTER_NAME    = EARTH
REF_FRAME      = TEME
TIME_SYSTEM    = UTC
MEAN_ELEMENT_THEORY = SGP/SGP4

EPOCH          = 2026-02-20T15:29:24.332064
MEAN_MOTION    = 15.75215677
ECCENTRICITY   = .0001361
INCLINATION    = 97.2832
RA_OF_ASC_NODE = 295.7899
ARG_OF_PERICENTER = 101.2851
MEAN_ANOMALY   = 258.8567

EPHEMERIS_TYPE = 0
CLASSIFICATION_TYPE = U
NORAD_CAT_ID   = 67560
ELEMENT_SET_NO = 999
REV_AT_EPOCH   = 588
BSTAR          = .11976E-2
MEAN_MOTION_DOT = .182567E-2
MEAN_MOTION_DDOT = 0

CCSDS_OMM_VERS = 2.0
CREATION_DATE  = 
ORIGINATOR     = 

OBJECT_NAME    = STARLINK-36621
OBJECT_ID      = 2026-016A
CENTER_NAME    = EARTH
REF_FRAME      = TEME
TIME_SYSTEM    = UTC
MEAN_ELEMENT_THEORY = SGP/SGP4

EPOCH          = 2026-02-20T16:49:52.085856
MEAN_MOTION    = 15.75198199
ECCENTRICITY   = .0001701
INCLINATION    = 97.2824
RA_OF_ASC_NODE = 111.2668
ARG_OF_PERICENTER = 87.9391
MEAN_ANOMALY   = 272.2069

EPHEMERIS_TYPE = 0
CLASSIFICATION_TYPE = U
NORAD_CAT_ID   = 67561
ELEMENT_SET_NO = 999
REV_AT_EPOCH   = 412
BSTAR          = .14855E-2
MEAN_MOTION_DOT = .22753E-2
MEAN_MOTION_DDOT = 0

CCSDS_OMM_VERS = 2.0
CREATION_DATE  = 
ORIGINATOR     = 

OBJECT_NAME    = STARLINK-36398
OBJECT_ID      = 2026-016B
CENTER_NAME    = EARTH
REF_FRAME      = TEME
TIME_SYSTEM    = UTC
MEAN_ELEMENT_THEORY = SGP/SGP4

EPOCH          = 2026-02-20T17:00:32.655456
MEAN_MOTION    = 15.75204253
ECCENTRICITY   = .0002529
INCLINATION    = 97.2839
RA_OF_ASC_NODE = 111.2544
ARG_OF_PERICENTER = 62.0410
MEAN_ANOMALY   = 298.1111

EPHEMERIS_TYPE = 0
CLASSIFICATION_TYPE = U
NORAD_CAT_ID   = 67562
ELEMENT_SET_NO = 999
REV_AT_EPOCH   = 412
BSTAR          = .15645E-2
MEAN_MOTION_DOT = .240064E-2
MEAN_MOTION_DDOT = 0

CCSDS_OMM_VERS = 2.0
CREATION_DATE  = 
ORIGINATOR     = 

OBJECT_NAME    = STARLINK-36403
OBJECT_ID      = 2026-016C
CENTER_NAME    = EARTH
REF_FRAME      = TEME
TIME_SYSTEM    = UTC
MEAN_ELEMENT_THEORY = SGP/SGP4

EPOCH          = 2026-02-20T15:54:41.210208
MEAN_MOTION    = 15.80717101
ECCENTRICITY   = .0005006
INCLINATION    = 97.2828
RA_OF_ASC_NODE = 111.3210
ARG_OF_PERICENTER = 0.4613
MEAN_ANOMALY   = 359.6659

EPHEMERIS_TYPE = 0
CLASSIFICATION_TYPE = U
NORAD_CAT_ID   = 67563
ELEMENT_SET_NO = 999
REV_AT_EPOCH   = 412
BSTAR          = .27745E-2
MEAN_MOTION_DOT = .564718E-2
MEAN_MOTION_DDOT = 0

CCSDS_OMM_VERS = 2.0
CREATION_DATE  = 
ORIGINATOR     = 

OBJECT_NAME    = STARLINK-36593
OBJECT_ID      = 2026-016D
CENTER_NAME    = EARTH
REF_FRAME      = TEME
TIME_SYSTEM    = UTC
MEAN_ELEMENT_THEORY = SGP/SGP4

EPOCH          = 2026-02-20T20:00:01.999008
MEAN_MOTION    = 15.75306736
ECCENTRICITY   = .0001722
INCLINATION    = 97.2835
RA_OF_ASC_NODE = 111.4889
ARG_OF_PERICENTER = 92.1914
MEAN_ANOMALY   = 128.2825

EPHEMERIS_TYPE = 0
CLASSIFICATION_TYPE = U
NORAD_CAT_ID   = 67564
ELEMENT_SET_NO = 999
REV_AT_EPOCH   = 528
BSTAR          = -.1531E-2
MEAN_MOTION_DOT = -.223764E-2
MEAN_MOTION_DDOT = 0

CCSDS_OMM_VERS = 2.0
CREATION_DATE  = 
ORIGINATOR     = 

OBJECT_NAME    = STARLINK-35725
OBJECT_ID      = 2026-016E
CENTER_NAME    = EARTH
REF_FRAME      = TEME
TIME_SYSTEM    = UTC
MEAN_ELEMENT_THEORY = SGP/SGP4

EPOCH          = 2026-02-20T16:32:05.241984
MEAN_MOTION    = 15.75324383
ECCENTRICITY   = .0001733
INCLINATION    = 97.2838
RA_OF_ASC_NODE = 111.2841
ARG_OF_PERICENTER = 47.6115
MEAN_ANOMALY   = 312.5296

EPHEMERIS_TYPE = 0
CLASSIFICATION_TYPE = U
NORAD_CAT_ID   = 67565
ELEMENT_SET_NO = 999
REV_AT_EPOCH   = 412
BSTAR          = .20725E-2
MEAN_MOTION_DOT = .322852E-2
MEAN_MOTION_DDOT = 0

CCSDS_OMM_VERS = 2.0
CREATION_DATE  = 
ORIGINATOR     = 

OBJECT_NAME    = STARLINK-36394
OBJECT_ID      = 2026-016F
CENTER_NAME    = EARTH
REF_FRAME      = TEME
TIME_SYSTEM    = UTC
MEAN_ELEMENT_THEORY = SGP/SGP4

EPOCH          = 2026-02-20T16:34:37.713792
MEAN_MOTION    = 15.75331200
ECCENTRICITY   = .0002062
INCLINATION    = 97.2834
RA_OF_ASC_NODE = 111.2777
ARG_OF_PERICENTER = 57.6600
MEAN_ANOMALY   = 302.4865

EPHEMERIS_TYPE = 0
CLASSIFICATION_TYPE = U
NORAD_CAT_ID   = 67566
ELEMENT_SET_NO = 999
REV_AT_EPOCH   = 412
BSTAR          = .21764E-2
MEAN_MOTION_DOT = .339824E-2
MEAN_MOTION_DDOT = 0

CCSDS_OMM_VERS = 2.0
CREATION_DATE  = 
ORIGINATOR     = 

OBJECT_NAME    = STARLINK-36352
OBJECT_ID      = 2026-016G
CENTER_NAME    = EARTH
REF_FRAME      = TEME
TIME_SYSTEM    = UTC
MEAN_ELEMENT_THEORY = SGP/SGP4

EPOCH          = 2026-02-20T15:47:29.881536
MEAN_MOTION    = 15.80970137
ECCENTRICITY   = .0002065
INCLINATION    = 97.2858
RA_OF_ASC_NODE = 111.3251
ARG_OF_PERICENTER = 49.6311
MEAN_ANOMALY   = 310.5137

EPHEMERIS_TYPE = 0
CLASSIFICATION_TYPE = U
NORAD_CAT_ID   = 67567
ELEMENT_SET_NO = 999
REV_AT_EPOCH   = 412
BSTAR          = .19929E-2
MEAN_MOTION_DOT = .402564E-2
MEAN_MOTION_DDOT = 0

